NORAD_CAT_ID,OBJECT_NAME,OBJECT_TYPE,EPOCH,MEAN_MOTION,ECCENTRICITY,INCLINATION,RA_OF_ASC_NODE,ARG_OF_PERICENTER,MEAN_ANOMALY,BSTAR,MEAN_MOTION_DOT,MEAN_MOTION_DDOT,TLE_LINE0,TLE_LINE1,TLE_LINE2,SEMIMAJOR_AXIS,PERIOD,APOGEE,PERIGEE,DECAYED
53824.0,STARLINK-4757,PAYLOAD,2024-07-19 21:32:32,15.08818837,0.0001435,53.2173,107.8192,80.0086,280.1068,-0.00011405,-2.101e-05,0.0,0 STARLINK-4757,1 53824U 22114G   24201.89760063 -.00002101  00000-0 -11405-3 0  9990,2 53824  53.2173 107.8192 0001435  80.0086 280.1068 15.08818837102049,6917.945,95.439,540.803,538.817,0.0
53824.0,STARLINK-4757,PAYLOAD,2024-07-20 00:43:17,15.08838561,0.0001398,53.2172,107.2169,106.2501,253.8645,2.9375e-05,1.8e-06,0.0,0 STARLINK-4757,1 53824U 22114G   24202.03006407  .00000180  00000-0  29375-4 0  9991,2 53824  53.2172 107.2169 0001398 106.2501 253.8645 15.08838561102063,6917.885,95.438,540.717,538.783,0.0
53824.0,STARLINK-4757,PAYLOAD,2024-07-20 10:15:35,15.08851672,0.0001347,53.2176,105.4369,97.6013,262.5132,3.4885e-05,2.67e-06,0.0,0 STARLINK-4757,1 53824U 22114G   24202.42749566  .00000267  00000-0  34885-4 0  9992,2 53824  53.2176 105.4369 0001347  97.6013 262.5132 15.08851672102127,6917.845,95.437,540.642,538.778,0.0
53824.0,STARLINK-4757,PAYLOAD,2024-07-20 21:23:19,15.08806681,0.0001302,53.2158,103.359,104.8235,255.2902,0.00016694,2.368e-05,0.0,0 STARLINK-4757,1 53824U 22114G   24202.89120283  .00002368  00000-0  16694-3 0  9993,2 53824  53.2158 103.3590 0001302 104.8235 255.2902 15.08806681102199,6917.982,95.44,540.748,538.947,0.0
53824.0,STARLINK-4757,PAYLOAD,2024-07-21 00:34:06,15.08810469,0.0001613,53.2162,102.7654,113.0196,247.0966,0.00024212,3.564e-05,0.0,0 STARLINK-4757,1 53824U 22114G   24203.02368335  .00003564  00000-0  24212-3 0  9995,2 53824  53.2162 102.7654 0001613 113.0196 247.0966 15.08810469102661,6917.971,95.439,540.952,538.72,0.0
53824.0,STARLINK-4757,PAYLOAD,2024-07-21 21:14:06,15.08834913,0.0001646,53.218,98.9002,109.2604,250.8566,0.0001285,1.757e-05,0.0,0 STARLINK-4757,1 53824U 22114G   24203.88480251  .00001757  00000-0  12850-3 0  9998,2 53824  53.2180  98.9002 0001646 109.2604 250.8566 15.08834913102344,6917.896,95.438,540.9,538.622,0.0
53824.0,STARLINK-4757,PAYLOAD,2024-07-22 03:35:39,15.08836569,0.0001574,53.2168,97.7104,105.748,254.3685,0.00013388,1.843e-05,0.0,0 STARLINK-4757,1 53824U 22114G   24204.14976205  .00001843  00000-0  13388-3 0  9990,2 53824  53.2168  97.7104 0001574 105.7480 254.3685 15.08836569102837,6917.891,95.438,540.845,538.667,0.0
53824.0,STARLINK-4757,PAYLOAD,2024-07-22 22:40:16,15.08845585,0.0001357,53.2151,94.1386,99.4786,260.636,0.00024338,3.588e-05,0.0,0 STARLINK-4757,1 53824U 22114G   24204.94463886  .00003588  00000-0  24338-3 0  9999,2 53824  53.2151  94.1386 0001357  99.4786 260.6360 15.08845585102950,6917.863,95.437,540.667,538.79,0.0
53824.0,STARLINK-4757,PAYLOAD,2024-07-23 01:51:02,15.08852829,0.0001377,53.2149,93.5436,101.3733,258.7413,0.00036722,5.563e-05,0.0,0 STARLINK-4757,1 53824U 22114G   24205.07711592  .00005563  00000-0  36722-3 0  9999,2 53824  53.2149  93.5436 0001377 101.3733 258.7413 15.08852829102522,6917.841,95.437,540.659,538.754,0.0
53824.0,STARLINK-4757,PAYLOAD,2024-07-23 09:47:57,15.08869564,0.0001615,53.2154,92.0559,72.886,287.2309,0.00065336,0.00010134,0.0,0 STARLINK-4757,1 53824U 22114G   24205.40830940  .00010134  00000-0  65336-3 0  9998,2 53824  53.2154  92.0559 0001615  72.8860 287.2309 15.08869564103027,6917.79,95.436,540.772,538.538,0.0
53824.0,STARLINK-4757,PAYLOAD,2024-07-23 22:31:03,15.08846967,0.000134,53.2151,89.6756,89.2107,270.9039,8.7501e-05,1.105e-05,0.0,0 STARLINK-4757,1 53824U 22114G   24205.93823248  .00001105  00000-0  87501-4 0  9996,2 53824  53.2151  89.6756 0001340  89.2107 270.9039 15.08846967103106,6917.859,95.437,540.651,538.797,0.0
53824.0,STARLINK-4757,PAYLOAD,2024-07-24 00:06:26,15.08850056,0.0001407,53.2157,89.3781,86.68,273.4353,0.00016581,2.353e-05,0.0,0 STARLINK-4757,1 53824U 22114G   24206.00447180  .00002353  00000-0  16581-3 0  9997,2 53824  53.2157  89.3781 0001407  86.6800 273.4353 15.08850056102663,6917.85,95.437,540.688,538.741,0.0
53824.0,STARLINK-4757,PAYLOAD,2024-07-24 22:21:50,15.08837143,0.000148,53.2157,85.2147,79.78,280.3359,0.00013222,1.817e-05,0.0,0 STARLINK-4757,1 53824U 22114G   24206.93183558  .00001817  00000-0  13222-3 0  9998,2 53824  53.2157  85.2147 0001480  79.7800 280.3359 15.08837143103259,6917.889,95.438,540.778,538.73,0.0
53824.0,STARLINK-4757,PAYLOAD,2024-07-25 15:51:05,15.08834195,0.0001572,53.2162,81.9458,74.8035,285.3131,0.00013596,1.876e-05,0.0,0 STARLINK-4757,1 53824U 22114G   24207.66048211  .00001876  00000-0  13596-3 0  9994,2 53824  53.2162  81.9458 0001572  74.8035 285.3131 15.08834195102910,6917.898,95.438,540.851,538.676,0.0
53824.0,STARLINK-4757,PAYLOAD,2024-07-25 22:12:38,15.08832517,0.0001288,53.2161,80.7557,95.415,264.6989,8.9818e-05,1.142e-05,0.0,0 STARLINK-4757,1 53824U 22114G   24207.92544267  .00001142  00000-0  89818-4 0  9992,2 53824  53.2161  80.7557 0001288  95.4150 264.6989 15.08832517103409,6917.903,95.438,540.659,538.877,0.0
53824.0,STARLINK-4757,PAYLOAD,2024-07-26 22:03:24,15.08847248,0.0001307,53.2159,76.2929,87.4877,272.6265,0.00034641,5.231e-05,0.0,0 STARLINK-4757,1 53824U 22114G   24208.91903814  .00005231  00000-0  34641-3 0  9995,2 53824  53.2159  76.2929 0001307  87.4877 272.6265 15.08847248103557,6917.858,95.437,540.627,538.819,0.0
53824.0,STARLINK-4757,PAYLOAD,2024-07-27 21:54:12,15.08834363,0.0001211,53.2143,71.8333,81.9327,278.1802,3.6797e-05,2.98e-06,0.0,0 STARLINK-4757,1 53824U 22114G   24209.91264307  .00000298  00000-0  36797-4 0  9996,2 53824  53.2143  71.8333 0001211  81.9327 278.1802 15.08834363103702,6917.898,95.438,540.6,538.925,0.0
53824.0,STARLINK-4757,PAYLOAD,2024-07-28 20:09:36,15.08836585,0.0001215,53.2156,67.6716,89.9936,270.1196,-1.4953e-05,-5.26e-06,0.0,0 STARLINK-4757,1 53824U 22114G   24210.84001001 -.00000526  00000-0 -14953-4 0  9996,2 53824  53.2156  67.6716 0001215  89.9936 270.1196 15.08836585103843,6917.891,95.438,540.596,538.915,0.0
53824.0,STARLINK-4757,PAYLOAD,2024-07-29 07:17:18,15.08843668,0.0001317,53.2168,65.589,86.8017,273.3126,8.9574e-05,1.138e-05,0.0,0 STARLINK-4757,1 53824U 22114G   24211.30368329  .00001138  00000-0  89574-4 0  9996,2 53824  53.2168  65.5890 0001317  86.8017 273.3126 15.08843668103461,6917.869,95.437,540.645,538.823,0.0
53824.0,STARLINK-4757,PAYLOAD,2024-07-29 21:35:46,15.08837464,0.0001451,53.2169,62.9136,91.3895,268.7263,0.00017479,2.495e-05,0.0,0 STARLINK-4757,1 53824U 22114G   24211.89984850  .00002495  00000-0  17479-3 0  9994,2 53824  53.2169  62.9136 0001451  91.3895 268.7263 15.08837464103557,6917.888,95.438,540.757,538.749,0.0
53824.0,STARLINK-4757,PAYLOAD,2024-07-30 07:08:04,15.08850205,0.0001578,53.2177,61.1272,84.471,275.6462,0.00025888,3.836e-05,0.0,0 STARLINK-4757,1 53824U 22114G   24212.29727948  .00003836  00000-0  25888-3 0  9995,2 53824  53.2177  61.1272 0001578  84.4710 275.6462 15.08850205103610,6917.849,95.437,540.806,538.623,0.0
53824.0,STARLINK-4757,PAYLOAD,2024-07-31 13:20:25,15.08843919,0.0002221,53.2151,55.482,84.996,275.1285,0.00012822,1.753e-05,0.0,0 STARLINK-4757,1 53824U 22114G   24213.55584684  .00001753  00000-0  12822-3 0  9993,2 53824  53.2151  55.4820 0002221  84.9960 275.1285 15.08843919103808,6917.868,95.437,541.27,538.197,0.0
53824.0,STARLINK-4757,PAYLOAD,2024-07-31 19:41:58,15.08836843,0.0001533,53.2172,54.2932,84.5854,275.5313,-7.0896e-05,-1.416e-05,0.0,0 STARLINK-4757,1 53824U 22114G   24213.82081498 -.00001416  00000-0 -70896-4 0  9992,2 53824  53.2172  54.2932 0001533  84.5854 275.5313 15.08836843103843,6917.89,95.438,540.816,538.695,0.0
53824.0,STARLINK-4757,PAYLOAD,2024-08-01 13:11:11,15.08847234,0.0001792,53.2174,51.0147,96.7222,263.3974,8.75e-05,1.105e-05,0.0,0 STARLINK-4757,1 53824U 22114G   24214.54944125  .00001105  00000-0  87500-4 0  9990,2 53824  53.2174  51.0147 0001792  96.7222 263.3974 15.08847234103955,6917.858,95.437,540.963,538.484,0.0
53824.0,STARLINK-4757,PAYLOAD,2024-08-01 19:32:43,15.0884591,0.0001625,53.2181,49.8294,92.7527,267.3652,0.00027221,4.048e-05,0.0,0 STARLINK-4757,1 53824U 22114G   24214.81439400  .00004048  00000-0  27221-3 0  9997,2 53824  53.2181  49.8294 0001625  92.7527 267.3652 15.08845910104441,6917.862,95.437,540.851,538.603,0.0
53824.0,STARLINK-4757,PAYLOAD,2024-08-02 06:40:25,15.08846647,0.0001504,53.2171,47.7451,113.2879,246.8272,0.00099884,0.00015647,0.0,0 STARLINK-4757,1 53824U 22114G   24215.27807440  .00015647  00000-0  99884-3 0  9992,2 53824  53.2171  47.7451 0001504 113.2879 246.8272 15.08846647104513,6917.86,95.437,540.766,538.685,0.0
53824.0,STARLINK-4757,PAYLOAD,2024-08-02 19:23:30,15.08853332,0.0001485,53.2169,45.3687,94.3286,265.7876,0.00024,3.535e-05,0.0,0 STARLINK-4757,1 53824U 22114G   24215.80798717  .00003535  00000-0  24000-3 0  9998,2 53824  53.2169  45.3687 0001485  94.3286 265.7876 15.08853332104142,6917.84,95.437,540.732,538.677,0.0
53824.0,STARLINK-4757,PAYLOAD,2024-08-02 22:34:15,15.08857691,0.0001426,53.2165,44.7715,102.5367,257.5785,0.00010976,1.46e-05,0.0,0 STARLINK-4757,1 53824U 22114G   24215.94046140  .00001460  00000-0  10976-3 0  9991,2 53824  53.2165  44.7715 0001426 102.5367 257.5785 15.08857691104612,6917.826,95.436,540.678,538.705,0.0
53824.0,STARLINK-4757,PAYLOAD,2024-08-03 12:52:42,15.08879702,0.000128,53.2166,42.0974,90.594,269.5198,0.00036962,5.606e-05,0.0,0 STARLINK-4757,1 53824U 22114G   24216.53660219  .00005606  00000-0  36962-3 0  9995,2 53824  53.2166  42.0974 0001280  90.5940 269.5198 15.08879702104250,6917.759,95.435,540.51,538.739,0.0
53824.0,STARLINK-4757,PAYLOAD,2024-08-03 19:14:14,15.08902651,0.0001307,53.2161,40.9079,89.5571,270.5571,0.0016841,0.00026662,0.0,0 STARLINK-4757,1 53824U 22114G   24216.80155297  .00026662  00000-0  16841-2 0  9998,2 53824  53.2161  40.9079 0001307  89.5571 270.5571 15.08902651104297,6917.689,95.434,540.458,538.65,0.0
